OBJECT_NAME,OBJECT_ID,EPOCH,MEAN_MOTION,ECCENTRICITY,INCLINATION,RA_OF_ASC_NODE,ARG_OF_PERICENTER,MEAN_ANOMALY,EPHEMERIS_TYPE,CLASSIFICATION_TYPE,NORAD_CAT_ID,ELEMENT_SET_NO,REV_AT_EPOCH,BSTAR,MEAN_MOTION_DOT,MEAN_MOTION_DDOT
M2 PATHFINDER,2020-037E,2026-07-11T23:36:46.094112,15.04785685,.0013143,97.8148,24.4958,72.3755,287.8905,0,U,45727,999,32922,.76319E-4,.1014E-4,0
NETSAT-4,2020-068U,2026-07-12T00:09:55.410048,15.44684583,.0004401,97.8606,203.2566,205.4118,154.6913,0,U,46504,999,31960,.23103E-3,.10683E-3,0
NETSAT-3,2020-068V,2026-07-11T13:52:28.906176,15.43525225,.00033769,97.8654,200.9796,227.4367,132.6595,0,U,46505,999,31944,.25063843E-3,.11149E-3,0
NETSAT-1,2020-068W,2026-07-11T13:58:32.694240,15.35191564,.00024394,97.8751,195.0226,285.6031,74.4941,0,U,46506,999,31904,.21210218E-3,.7156E-4,0
NETSAT-2,2020-068X,2026-07-12T00:15:25.282656,15.47067543,.0001752,97.8613,203.2505,224.2468,135.8640,0,U,46507,999,31957,.28629E-3,.14394E-3,0
GREENCUBE (IO-117),2022-080E,2026-07-11T07:23:26.297664,6.42583311,.0009046,70.1420,289.8580,284.3679,75.5976,0,U,53109,999,9361,0,-.3E-7,0
SITRO-AIS 5 (KATYS),2023-091L,2026-07-12T04:31:18.001056,15.30022007,.0010974,97.5054,257.3329,22.9722,337.2006,0,U,57176,999,16816,.2595E-3,.7476E-4,0
SITRO-AIS 6 (CHIRKIN),2023-091AC,2026-07-12T03:50:44.527776,15.26402165,.0011497,97.5061,256.2894,26.9592,333.2242,0,U,57192,999,16809,.22296E-3,.5738E-4,0
SITRO-AIS 8 (ANOKHIN),2023-091AD,2026-07-12T03:51:40.942656,15.32805109,.0009841,97.5051,258.9975,18.9821,341.1786,0,U,57193,999,16827,.26751E-3,.8407E-4,0
SITRO-AIS 7 (FARTUSHNIY),2023-091AE,2026-07-12T04:02:45.730176,15.26077550,.0011456,97.5057,256.1095,28.1035,332.0820,0,U,57194,999,16808,.2165E-3,.5514E-4,0
SITRO-AIS 10 (BURDAEV),2023-091AK,2026-07-12T03:36:25.074144,15.39551739,.0005112,97.5076,264.3037,354.2328,5.8857,0,U,57199,999,16860,.33402E-3,.13058E-3,0
SITRO-AIS 9 (SHCHUKIN),2023-091AM,2026-07-12T04:26:07.754208,15.39037978,.0005383,97.5074,264.0490,354.2538,5.8644,0,U,57201,999,16859,.29702E-3,.11406E-3,0
SITRO-AIS 12 (SMIRENNIY),2023-091AQ,2026-07-12T04:05:46.277664,15.39333844,.0004926,97.5088,264.5175,347.3350,12.7770,0,U,57204,999,16861,.29858E-3,.11578E-3,0
SITRO-AIS 11 (SHEFFER),2023-091AU,2026-07-12T04:14:58.111872,15.39775777,.0004819,97.5086,264.7867,346.5790,13.5327,0,U,57208,999,16863,.29643E-3,.11662E-3,0
SITRO-AIS 25,2024-039R,2026-07-12T03:57:36.275616,14.93631735,.0142563,95.3895,252.2568,240.2365,118.4617,0,U,59066,999,12845,.13498E-3,.1705E-4,0
SITRO-AIS 26,2024-039S,2026-07-12T04:04:32.045376,14.93423755,.0142905,95.3895,252.1526,240.8400,117.8463,0,U,59067,999,12844,.13659E-3,.1717E-4,0
SITRO-AIS 27,2024-039T,2026-07-12T04:48:00.705024,14.93849158,.0141971,95.3899,252.4568,239.2757,119.4420,0,U,59068,999,12847,.12596E-3,.1595E-4,0
SITRO-AIS 28,2024-039U,2026-07-12T04:14:43.679616,14.93881995,.0141881,95.3898,252.4896,239.1862,119.5338,0,U,59071,999,12847,.15346E-3,.1953E-4,0
GRBBETA,2024-128C,2026-07-11T07:27:10.573056,15.06792341,.00375247,61.9892,131.6189,139.8192,220.5686,0,U,60237,999,10990,.16150702E-3,.2233E-4,0
OOV-CUBE (TUBSAT-30),2024-128F,2026-07-12T00:09:51.509088,15.02865918,.0041539,61.9937,139.0215,139.3002,221.1206,0,U,60240,999,10984,.97999E-4,.1128E-4,0
ROBUSTA-3A (MEDITERRANEE),2024-128J,2026-07-12T04:51:30.785760,15.11959618,.0038345,61.9861,119.7630,133.3943,227.0356,0,U,60243,999,11020,.27269E-3,.4555E-4,0
LASARSAT,2024-247Q,2026-07-12T03:46:47.866080,15.47903686,.0006857,44.9749,121.7341,144.6843,215.4503,0,U,62391,999,8718,.42947E-3,.22599E-3,0
CROCUBE,2024-247T,2026-07-11T23:51:35.008416,15.50022679,.0007111,44.9710,119.5598,151.4754,208.6527,0,U,62394,999,8719,.48357E-3,.27505E-3,0
FORESAIL-1 PRIME,2025-276DS,2026-07-12T03:55:56.677152,15.18922403,.0003123,97.4195,265.9794,51.5125,308.6390,0,U,66778,999,3419,.14066E-3,.2869E-4,0
KNACKSAT-2,1998-067XZ,2026-07-11T08:33:41.694048,15.62129323,.00081939,51.6254,172.7064,314.9456,45.0873,0,U,67683,999,2405,.40006392E-3,.35473E-3,0
